#dP2017 10 23  0  0  0.00000000     288   u+U IGS14 FIT  GFZ                    
## 1972  86400.00000000   300.00000000 58049 0.0000000000000                    
+   87   C01C02C04C05C06C07C08C09C10C11C12C13C14E01E02E03E04                    
+        E05E07E08E09E11E12E14E18E19E22E24E26E30G01G02G03G04                    
+        G05G06G07G08G09G10G11G12G13G14G15G16G17G18G19G20G21                    
+        G22G23G24G25G26G27G28G29G30G31G32J01J02R01R02R03R04                    
+        R05R06R07R08R09R10R11R13R14R15R16R17R18R19R20R21R22                    
+        R23R24 00 00 00 00 00 00 00 00 00 00 00 00 00 00 00                    
++        10 10 10 10 10  7 10  7  8  8  7 10  7  5  6  6  6                    
++         7  6  6  8  9  9  8 10  5  6  7  8  6  6  5  5  8                    
++         6  5  7  6  5  7  7  5  5  6  6  6  5  7  5  6  8                    
++         7  7  5  5  5  6  6  7  6 10  8 10 10  6  7  7  8                    
++        10  8  7  5  7  7  8  6 10  7  9  8  7  8 10  8  8                    
++         7 10  0  0  0  0  0  0  0  0  0  0  0  0  0  0  0                    
%c M  cc GPS ccc cccc cccc cccc cccc ccccc ccccc ccccc ccccc                    
%c cc cc ccc ccc cccc cccc cccc cccc ccccc ccccc ccccc ccccc                    
%f  1.2500000  1.025000000  0.00000000000  0.000000000000000                    
%f  0.0000000  0.000000000  0.00000000000  0.000000000000000                    
%i    0    0    0    0      0      0      0      0         0                    
%i    0    0    0    0      0      0      0      0         0                    
/* PCV:IGS14_1972 OL/AL:FES2004  NONE     YN CLK:CoN ORB:CoN                    
/*     GeoForschungsZentrum Potsdam                                             
/*                                                                              
/*                                                                              
*  2017 10 23 21 55  0.00000000                                                 
PC01 -32271.862770  27110.400730    782.998054    -99.230504                    
PC02   4464.904686  41951.461343    119.970541    562.018966                    
PC04 -39604.073595  14427.216205    625.318252    162.164062                    
PC05  21983.978593  35996.759961     43.757658   -205.647672                    
PC06 -16759.200709  20643.968023 -32552.910355    -94.740443                    
PC07 -21210.049446  35448.570689   7312.032708     44.475365                    
PC08  -7463.818927  30915.740910  27857.880236   -468.716141                    
PC09    514.238738  24922.038784 -33830.554496   -781.734410                    
PC10 -10302.791417  36176.637307  18835.414880    243.894490                    
PC11  -3061.091936  17929.477010  21239.592116    403.560528                    
PC12 -18026.321800   1196.015081  21284.913190    164.072663                    
PC13   3157.375273  39198.136900  15536.208538    591.462087                    
PC14 -14945.260290  15815.550747 -17457.869055    835.376408                    
PE01  17157.772353 -24086.613469  -1384.742663   -189.935298                    
PE02 -17129.929379  24098.881199   1428.804538     -5.658940                    
PE03 -14579.183883  13699.199407 -21812.655274     44.767058                    
PE04  -7720.143717 -17325.745031  22726.426567     97.154956                    
PE05 -28395.017043   2033.107205  -8112.341249    394.823206                    
PE07  25564.395060  10796.260230 -10304.477415    149.060754                    
PE08   7852.681643  17113.757708 -22839.646629   6713.447972                    
PE09 -25619.209089 -10519.045397  10436.747802   6979.828128                    
PE11 -18164.891129 -18902.620219  13745.809693   1828.463418                    
PE12  -8681.235245 -27957.647155  -4404.368787   2676.810090                    
PE14  -8560.336447 -25261.784748 -17778.689762   6693.387913                    
PE18  13262.073398  18904.159891   7727.833985   6706.281081                    
PE19  16388.670712 -12809.264704  21057.798806     15.545729                    
PE22  -5631.674255  21320.176640  19742.653543   6422.345873                    
PE24 -14026.193389  -8212.110043 -24739.006856   7061.735595                    
PE26  17226.947946  -1312.032488 -24038.934288   6695.272839                    
PE30  -2189.116057  22872.316152  18662.908129   6383.081360                    
PG01 -13268.882984  14476.702274  17616.383909     -5.942570                    
PG02  14018.084183   9968.710122 -19793.085032    298.991651                    
PG03 -22330.848653  13806.505818  -3875.888106    -52.047766                    
PG04 -23106.186223 -13650.474138  -1228.075043     53.786019                    
PG05  22605.392589      4.625951 -14205.447718    -25.045358                    
PG06   7780.787529  21525.044565 -13451.789683    406.182008                    
PG07  -6090.067581  24994.529168  -5385.590443    289.260847                    
PG08 -21994.032277  -2320.757336  14839.298017    -78.048166                    
PG09  -4173.627620  15358.606620 -21292.616729    462.033595                    
PG10  -3109.292212 -15249.154904  21532.936951     95.438072                    
PG11 -13457.233508   9751.095823  20167.060429   -722.842416                    
PG12  24287.865897 -10472.217948   -667.538553    367.889338                    
PG13  22315.858819  10303.763603   9921.290880    -93.127490                    
PG14 -17706.204579 -19168.979189   5682.314162    -86.921523                    
PG15  21421.159941  -1262.793759  15700.929994   -356.804232                    
PG16 -22709.532212  -1173.739939 -14188.332556     36.794650                    
PG17  11007.707531  20019.074811  14047.224235   -149.122592                    
PG18   7527.828647 -19053.148380  17401.459519    631.784061                    
PG19  17016.932962  19266.832676   5918.036428   -479.594995                    
PG20  23036.786910 -13149.128646  -1195.511181    490.620789                    
PG21   2101.836453 -26304.831323  -1825.181162   -468.570763                    
PG22 -24422.379028   9640.255305   4361.620574   -164.907228                    
PG23 -14867.427089   7849.519361 -20393.301657   -218.297074                    
PG24  14172.491298 -11747.197388  18962.053238    -41.295147                    
PG25  16826.660721 -16849.265711 -11687.326776   -477.640316                    
PG26 -15377.200381  -8103.818896 -20103.407900   -387.034654                    
PG27 -23370.027782 -12036.923082   4502.638770    340.386943                    
PG28  -1798.264870  16050.835756  21724.176854    656.527816                    
PG29   9170.120871 -11540.890751 -22103.345339    547.406911                    
PG30    339.116682  25986.024443   5100.437965    132.810261                    
PG31  -8879.256624 -19281.405672 -15643.846561    166.891343                    
PG32 -14106.518490 -19289.587566  11679.298690   -516.432836                    
PJ01 -34766.969325  21754.315814  -5161.769957   -300.287555                    
PJ02 -21391.830793  33070.036790 -10877.331619     16.712530                    
PR01  19587.003009  -7671.372329  14436.576685     17.035121                    
PR02    239.478209 -10934.531790  23075.944332    276.643619                    
PR03 -17848.461393  -7535.678658  16647.949873    114.033145                    
PR04 -25509.544057    563.470953    110.222492    235.542623                    
PR05 -18384.392901   8245.075123 -15649.366197   -183.530329                    
PR06    814.921227  11095.793727 -22968.021286    120.070206                    
PR07  18108.702078   7388.282745 -16327.685621    -20.162104                    
PR08  25498.053941   -260.554282   -645.281497    -26.837316                    
PR09  -6807.932816  22188.723886  10525.438893     45.898249                    
PR10   5461.486120  11088.868739  22286.256301      9.634173                    
PR11  14484.752465  -6192.647837  20100.342312    -12.984234                    
PR13   5658.537714 -21944.631666 -11729.240755     -3.775126                    
PR14  -5370.739950 -11633.769095 -22039.019050     21.864416                    
PR15 -13212.958803   3330.579099 -21569.766090     -2.218118                    
PR16 -14458.174464  19939.585118  -6853.494544     77.187559                    
PR17 -14611.378341 -20388.595728   4516.363067     80.677437                    
PR18 -15077.675769  -8359.036291  18833.131474    170.974686                    
PR19  -6934.248836   8807.049295  22910.574850    -30.050423                    
PR20   5592.499272  21368.859638  12723.810822   -312.677307                    
PR21  14690.125396  20353.968091  -4636.935821    139.715751                    
PR22  14535.016433   6753.753250 -19800.675769     12.781723                    
PR23   4935.624920 -11513.882430 -22229.523798    114.837408                    
PR24  -6200.373986 -21429.383758 -12401.859380   -157.433885                    
EOF                                     
